[{"OBJECT_NAME":"STARLINK-35035","OBJECT_ID":"2025-192D","EPOCH":"2026-03-09T18:21:03.759840","MEAN_MOTION":15.31044584,"ECCENTRICITY":0.00010982,"INCLINATION":53.1616,"RA_OF_ASC_NODE":232.154,"ARG_OF_PERICENTER":73.9902,"MEAN_ANOMALY":286.122,"EPHEMERIS_TYPE":0,"CLASSIFICATION_TYPE":"U","NORAD_CAT_ID":65407,"ELEMENT_SET_NO":999,"REV_AT_EPOCH":2939,"BSTAR":0.00093583349,"MEAN_MOTION_DOT":0.00028198,"MEAN_MOTION_DDOT":0},{"OBJECT_NAME":"CZ-6A DEB","OBJECT_ID":"2024-140AAN","EPOCH":"2026-03-09T15:08:07.195776","MEAN_MOTION":15.20547394,"ECCENTRICITY":0.0064261,"INCLINATION":89.3669,"RA_OF_ASC_NODE":306.3092,"ARG_OF_PERICENTER":93.6352,"MEAN_ANOMALY":267.2246,"EPHEMERIS_TYPE":0,"CLASSIFICATION_TYPE":"U","NORAD_CAT_ID":61480,"ELEMENT_SET_NO":999,"REV_AT_EPOCH":8198,"BSTAR":0.0033609,"MEAN_MOTION_DOT":0.00078405,"MEAN_MOTION_DDOT":0}]
